ALOS-2                  
1 39766U 14029A   26175.24061786  .00001307  00000+0  18191-3 0  9995
2 39766  97.9218 272.3032 0001637  93.0107 267.1292 14.79474948652622
KAZEOSAT 2              
1 40010U 14033A   26175.30285502  .00000416  00000+0  54057-4 0  9997
2 40010  97.5409  14.5385 0007323 302.8371  57.2139 14.85475476650016
HODOYOSHI-4             
1 40011U 14033B   26175.29596707  .00000508  00000+0  60650-4 0  9996
2 40011  97.5461 359.7756 0022103 283.6640  76.2116 14.88140255649863
DEIMOS-2                
1 40013U 14033D   26175.28387416  .00001505  00000+0  14722-3 0  9998
2 40013  97.5828  49.5231 0001414  58.3088 301.8271 14.93745438638787
HODOYOSHI-3             
1 40015U 14033F   26175.19081208  .00000873  00000+0  10658-3 0  9991
2 40015  97.6424 337.9495 0032079 333.8995  26.0602 14.85400785648663
SPOT 7                  
1 40053U 14034A   26175.30442441  .00000252  00000+0  60769-4 0  9997
2 40053  98.0626 237.6128 0001321  96.8254 263.3098 14.60963308638171
SKYSAT-B                
1 40072U 14037D   26175.11845173  .00001038  00000+0  11973-3 0  9994
2 40072  98.3840 134.4786 0004211 251.7206 108.3550 14.88042402646990
WORLDVIEW-3 (WV-3)      
1 40115U 14048A   26175.24227642  .00000680  00000+0  85914-4 0  9992
2 40115  97.8564 249.9778 0000407  17.4961 342.6267 14.85031672642950
GAOFEN-2                
1 40118U 14049A   26175.33850883  .00000511  00000+0  73066-4 0  9993
2 40118  98.0105 239.5388 0006627 200.2969 159.7981 14.80904531640292
YAOGAN-21               
1 40143U 14053A   26175.30813050  .00007104  00000+0  27474-3 0  9994
2 40143  97.1478 215.2384 0009754  73.2428 286.9881 15.26464044656045
YAOGAN-22               
1 40275U 14063A   26175.18238549 -.00000047  00000+0 -20859-6 0  9995
2 40275 100.7732 326.5719 0006501 169.7897 190.3347 13.15531180560738
ASNARO                  
1 40298U 14070A   26175.27155073  .00005324  00000+0  25363-3 0  9991
2 40298  97.3451 251.1940 0006238 144.5285 215.6366 15.19521256645083
YAOGAN-24               
1 40310U 14072A   26175.33468412  .00000238  00000+0  42114-4 0  9992
2 40310  98.1497 312.7336 0012676 238.1857 121.8118 14.76228998624773
CBERS 4                 
1 40336U 14079A   26175.28621046 -.00000149  00000+0 -37025-4 0  9993
2 40336  98.3530 231.8953 0001619  57.4944 302.6399 14.35509921604974
YAOGAN-26               
1 40362U 14088A   26175.31128443  .00024469  00000+0  47526-3 0  9994
2 40362  97.0645 175.3544 0005327  49.5915 310.5800 15.47609636638806
SMAP                    
1 40376U 15003A   26175.25939664  .00000357  00000+0  78078-4 0  9992
2 40376  98.1276 182.2537 0001390  97.9729 262.1631 14.63371900608659
KOMPSAT-3A              
1 40536U 15014A   26175.26002311  .00025240  00000+0  36052-3 0  9996
2 40536  97.6885 167.1402 0057125 149.1499 211.3132 15.54292752622916
SENTINEL-2A             
1 40697U 15028A   26175.27763473 -.00000085  00000+0 -15942-4 0  9991
2 40697  98.5679 250.0288 0001123  93.1752 266.9559 14.30816597574744
GAOFEN-8                
1 40701U 15030A   26175.27197234  .00013250  00000+0  27148-3 0  9992
2 40701  97.6908   9.0678 0009291 161.9473 198.2107 15.46171280612546
CARBONITE 1 (CBNT-1)    
1 40718U 15032D   26175.26426300  .00001577  00000+0  19721-3 0  9997
2 40718  97.6517 353.0341 0012897 272.2401  87.7337 14.83605710590397
YAOGAN-27               
1 40878U 15040A   26175.25053970  .00000497  00000+0  14190-2 0  9995
2 40878 100.1156 161.3268 0007841 193.3936 166.6971 13.16071283518590
GAOFEN-9 01             
1 40894U 15047A   26175.35015440  .00000855  00000+0  11098-3 0  9994
2 40894  97.6277 210.7195 0028751 115.3624 245.0572 14.82895653581252
YAOGAN-28               
1 41026U 15064A   26175.33238137  .00006602  00000+0  24768-3 0  9993
2 41026  97.3078 313.4488 0011279 158.8235 201.3473 15.27499291591770
YAOGAN-29               
1 41038U 15069A   26175.32941578  .00000283  00000+0  41453-4 0  9990
2 41038  98.0030 203.9738 0002285  43.7561 316.3833 14.83090751571685
KENT RIDGE 1            
1 41167U 15077B   26175.17032418  .00003516  00000+0  11301-3 0  9999
2 41167  14.9783 214.0541 0008213 336.9751  23.0202 15.23167564582169
GAOFEN-4                
1 41194U 15083A   26175.33395250 -.00000327  00000+0  00000+0 0  9998
2 41194   0.3770  83.8803 0004088 115.5435 298.9943  1.00271849 38605
JASON-3                 
1 41240U 16002A   26174.99291659 -.00000053  00000+0  37355-4 0  9995
2 41240  66.0412 111.5269 0008436 272.4502  87.5550 12.87628250488124
SENTINEL-3A             
1 41335U 16011A   26175.29968180  .00000071  00000+0  47395-4 0  9998
2 41335  98.6246 242.5812 0001424  98.0107 262.1235 14.26734381539077
ZIYUAN 3-02 (ZY 3-02)   
1 41556U 16033A   26175.29368152  .00004718  00000+0  21402-3 0  9992
2 41556  97.3836 250.9316 0012389 263.5034  96.4791 15.21236480559064
CARTOSAT-2C             
1 41599U 16040A   26175.30573183  .00004050  00000+0  19520-3 0  9998
2 41599  97.4482 235.1859 0010354 109.9108 250.3244 15.19239218554799
