OBJECT_NAME,OBJECT_ID,EPOCH,MEAN_MOTION,ECCENTRICITY,INCLINATION,RA_OF_ASC_NODE,ARG_OF_PERICENTER,MEAN_ANOMALY,EPHEMERIS_TYPE,CLASSIFICATION_TYPE,NORAD_CAT_ID,ELEMENT_SET_NO,REV_AT_EPOCH,BSTAR,MEAN_MOTION_DOT,MEAN_MOTION_DDOT
ALOS-2,2014-029A,2026-06-24T05:46:29.383104,14.79474948,.00016372,97.9218,272.3032,93.0107,267.1292,0,U,39766,999,65262,.18191465E-3,.1307E-4,0
KAZEOSAT 2,2014-033A,2026-06-24T07:16:06.673728,14.85475476,.0007323,97.5409,14.5385,302.8371,57.2139,0,U,40010,999,65001,.54057377E-4,.416E-5,0
HODOYOSHI-4,2014-033B,2026-06-24T07:06:11.554848,14.88140255,.0022103,97.5461,359.7756,283.6640,76.2116,0,U,40011,999,64986,.60649963E-4,.508E-5,0
DEIMOS-2,2014-033D,2026-06-24T06:48:46.727424,14.93745438,.00014148,97.5828,49.5231,58.3088,301.8271,0,U,40013,999,63878,.14721771E-3,.1505E-4,0
HODOYOSHI-3,2014-033F,2026-06-24T04:34:46.163712,14.85400785,.00320791,97.6424,337.9495,333.8995,26.0602,0,U,40015,999,64866,.10658201E-3,.873E-5,0
SPOT 7,2014-034A,2026-06-24T07:18:22.269024,14.60963308,.00013215,98.0626,237.6128,96.8254,263.3098,0,U,40053,999,63817,.60769057E-4,.252E-5,0
SKYSAT-B,2014-037D,2026-06-24T02:50:34.229472,14.88042402,.00042116,98.3840,134.4786,251.7206,108.3550,0,U,40072,999,64699,.11973485E-3,.1038E-4,0
WORLDVIEW-3 (WV-3),2014-048A,2026-06-24T05:48:52.682688,14.85031672,.00004071,97.8564,249.9778,17.4961,342.6267,0,U,40115,999,64295,.85914176E-4,.68E-5,0
GAOFEN-2,2014-049A,2026-06-24T08:07:27.162912,14.80904531,.00066273,98.0105,239.5388,200.2969,159.7981,0,U,40118,999,64029,.73066173E-4,.511E-5,0
YAOGAN-21,2014-053A,2026-06-24T07:23:42.475200,15.26464044,.00097549,97.1478,215.2384,73.2428,286.9881,0,U,40143,999,65604,.27473685E-3,.7104E-4,0
YAOGAN-22,2014-063A,2026-06-24T04:22:38.106336,13.15531180,.00065018,100.7732,326.5719,169.7897,190.3347,0,U,40275,999,56073,-.208589E-6,-.47E-6,0
ASNARO,2014-070A,2026-06-24T06:31:01.983072,15.19521256,.00062385,97.3451,251.1940,144.5285,215.6366,0,U,40298,999,64508,.25363175E-3,.5324E-4,0
YAOGAN-24,2014-072A,2026-06-24T08:01:56.707968,14.76228998,.00126763,98.1497,312.7336,238.1857,121.8118,0,U,40310,999,62477,.42114066E-4,.238E-5,0
CBERS 4,2014-079A,2026-06-24T06:52:08.583744,14.35509921,.00016195,98.3530,231.8953,57.4944,302.6399,0,U,40336,999,60497,-.37025382E-4,-.149E-5,0
YAOGAN-26,2014-088A,2026-06-24T07:28:14.974752,15.47609636,.00053272,97.0645,175.3544,49.5915,310.5800,0,U,40362,999,63880,.47525878E-3,.24469E-3,0
SMAP,2015-003A,2026-06-24T06:13:31.869696,14.63371900,.00013903,98.1276,182.2537,97.9729,262.1631,0,U,40376,999,60865,.78078368E-4,.357E-5,0
KOMPSAT-3A,2015-014A,2026-06-24T06:14:25.996704,15.54292752,.00571255,97.6885,167.1402,149.1499,211.3132,0,U,40536,999,62291,.36051544E-3,.2524E-3,0
SENTINEL-2A,2015-028A,2026-06-24T06:39:47.640672,14.30816597,.00011237,98.5679,250.0288,93.1752,266.9559,0,U,40697,999,57474,-.15941753E-4,-.85E-6,0
GAOFEN-8,2015-030A,2026-06-24T06:31:38.410176,15.46171280,.00092915,97.6908,9.0678,161.9473,198.2107,0,U,40701,999,61254,.27148037E-3,.1325E-3,0
CARBONITE 1 (CBNT-1),2015-032D,2026-06-24T06:20:32.323200,14.83605710,.00128979,97.6517,353.0341,272.2401,87.7337,0,U,40718,999,59039,.19720644E-3,.1577E-4,0
YAOGAN-27,2015-040A,2026-06-24T06:00:46.630080,13.16071283,.00078419,100.1156,161.3268,193.3936,166.6971,0,U,40878,999,51859,.14190106E-2,.497E-5,0
GAOFEN-9 01,2015-047A,2026-06-24T08:24:13.340160,14.82895653,.00287511,97.6277,210.7195,115.3624,245.0572,0,U,40894,999,58125,.11098238E-3,.855E-5,0
YAOGAN-28,2015-064A,2026-06-24T07:58:37.750368,15.27499291,.00112797,97.3078,313.4488,158.8235,201.3473,0,U,41026,999,59177,.24768143E-3,.6602E-4,0
YAOGAN-29,2015-069A,2026-06-24T07:54:21.523392,14.83090751,.00022854,98.0030,203.9738,43.7561,316.3833,0,U,41038,999,57168,.41453178E-4,.283E-5,0
KENT RIDGE 1,2015-077B,2026-06-24T04:05:16.009152,15.23167564,.0008213,14.9783,214.0541,336.9751,23.0202,0,U,41167,999,58216,.11300607E-3,.3516E-4,0
GAOFEN-4,2015-083A,2026-06-24T08:00:53.496000,1.00271849,.00040883,0.3770,83.8803,115.5435,298.9943,0,U,41194,999,3860,0,-.327E-5,0
JASON-3,2016-002A,2026-06-23T23:49:47.993376,12.87628250,.00084367,66.0412,111.5269,272.4502,87.5550,0,U,41240,999,48812,.37354673E-4,-.53E-6,0
SENTINEL-3A,2016-011A,2026-06-24T07:11:32.507520,14.26734381,.00014249,98.6246,242.5812,98.0107,262.1235,0,U,41335,999,53907,.47395482E-4,.71E-6,0
ZIYUAN 3-02 (ZY 3-02),2016-033A,2026-06-24T07:02:54.083328,15.21236480,.00123896,97.3836,250.9316,263.5034,96.4791,0,U,41556,999,55906,.21402153E-3,.4718E-4,0
CARTOSAT-2C,2016-040A,2026-06-24T07:20:15.230112,15.19239218,.00103544,97.4482,235.1859,109.9108,250.3244,0,U,41599,999,55479,.19520342E-3,.405E-4,0
